<?xml version="1.0" encoding="UTF-8"?>
<gpx version="1.1" creator="RunBPM samples" xmlns="http://www.topografix.com/GPX/1/1">
  <metadata><name>Boucle vallonnée (exemple)</name></metadata>
  <trk>
    <name>Boucle vallonnée (exemple)</name>
    <trkseg>
      <trkpt lat="45.900000" lon="6.146708"><ele>420.2</ele></trkpt>
      <trkpt lat="45.900067" lon="6.146717"><ele>419.5</ele></trkpt>
      <trkpt lat="45.900135" lon="6.146725"><ele>420.1</ele></trkpt>
      <trkpt lat="45.900202" lon="6.146732"><ele>421.2</ele></trkpt>
      <trkpt lat="45.900269" lon="6.146738"><ele>420.4</ele></trkpt>
      <trkpt lat="45.900337" lon="6.146743"><ele>420.1</ele></trkpt>
      <trkpt lat="45.900404" lon="6.146747"><ele>420.9</ele></trkpt>
      <trkpt lat="45.900471" lon="6.146750"><ele>421.0</ele></trkpt>
      <trkpt lat="45.900539" lon="6.146751"><ele>418.9</ele></trkpt>
      <trkpt lat="45.900606" lon="6.146752"><ele>421.2</ele></trkpt>
      <trkpt lat="45.900673" lon="6.146752"><ele>419.3</ele></trkpt>
      <trkpt lat="45.900741" lon="6.146750"><ele>419.2</ele></trkpt>
      <trkpt lat="45.900808" lon="6.146748"><ele>421.2</ele></trkpt>
      <trkpt lat="45.900875" lon="6.146744"><ele>418.9</ele></trkpt>
      <trkpt lat="45.900942" lon="6.146739"><ele>419.7</ele></trkpt>
      <trkpt lat="45.901009" lon="6.146733"><ele>418.8</ele></trkpt>
      <trkpt lat="45.901076" lon="6.146726"><ele>418.9</ele></trkpt>
      <trkpt lat="45.901143" lon="6.146718"><ele>420.4</ele></trkpt>
      <trkpt lat="45.901210" lon="6.146709"><ele>421.1</ele></trkpt>
      <trkpt lat="45.901277" lon="6.146699"><ele>420.8</ele></trkpt>
      <trkpt lat="45.901344" lon="6.146687"><ele>420.6</ele></trkpt>
      <trkpt lat="45.901411" lon="6.146675"><ele>418.9</ele></trkpt>
      <trkpt lat="45.901477" lon="6.146661"><ele>420.3</ele></trkpt>
      <trkpt lat="45.901544" lon="6.146646"><ele>420.0</ele></trkpt>
      <trkpt lat="45.901611" lon="6.146630"><ele>419.3</ele></trkpt>
      <trkpt lat="45.901677" lon="6.146613"><ele>421.0</ele></trkpt>
      <trkpt lat="45.901744" lon="6.146595"><ele>418.9</ele></trkpt>
      <trkpt lat="45.901810" lon="6.146576"><ele>420.8</ele></trkpt>
      <trkpt lat="45.901877" lon="6.146555"><ele>419.1</ele></trkpt>
      <trkpt lat="45.901943" lon="6.146534"><ele>418.8</ele></trkpt>
      <trkpt lat="45.902009" lon="6.146511"><ele>420.5</ele></trkpt>
      <trkpt lat="45.902075" lon="6.146487"><ele>420.6</ele></trkpt>
      <trkpt lat="45.902141" lon="6.146463"><ele>420.9</ele></trkpt>
      <trkpt lat="45.902207" lon="6.146436"><ele>420.8</ele></trkpt>
      <trkpt lat="45.902273" lon="6.146409"><ele>420.8</ele></trkpt>
      <trkpt lat="45.902339" lon="6.146381"><ele>420.6</ele></trkpt>
      <trkpt lat="45.902405" lon="6.146351"><ele>418.8</ele></trkpt>
      <trkpt lat="45.902470" lon="6.146321"><ele>419.6</ele></trkpt>
      <trkpt lat="45.902536" lon="6.146289"><ele>419.1</ele></trkpt>
      <trkpt lat="45.902601" lon="6.146256"><ele>420.4</ele></trkpt>
      <trkpt lat="45.902667" lon="6.146222"><ele>419.7</ele></trkpt>
      <trkpt lat="45.902732" lon="6.146187"><ele>419.5</ele></trkpt>
      <trkpt lat="45.902797" lon="6.146150"><ele>420.7</ele></trkpt>
      <trkpt lat="45.902862" lon="6.146113"><ele>419.5</ele></trkpt>
      <trkpt lat="45.902927" lon="6.146074"><ele>420.9</ele></trkpt>
      <trkpt lat="45.902992" lon="6.146034"><ele>420.1</ele></trkpt>
      <trkpt lat="45.903056" lon="6.145994"><ele>419.3</ele></trkpt>
      <trkpt lat="45.903121" lon="6.145951"><ele>419.9</ele></trkpt>
      <trkpt lat="45.903185" lon="6.145908"><ele>420.2</ele></trkpt>
      <trkpt lat="45.903249" lon="6.145864"><ele>419.8</ele></trkpt>
      <trkpt lat="45.903314" lon="6.145818"><ele>419.5</ele></trkpt>
      <trkpt lat="45.903378" lon="6.145771"><ele>420.9</ele></trkpt>
      <trkpt lat="45.903441" lon="6.145724"><ele>420.3</ele></trkpt>
      <trkpt lat="45.903505" lon="6.145675"><ele>419.6</ele></trkpt>
      <trkpt lat="45.903569" lon="6.145624"><ele>420.5</ele></trkpt>
      <trkpt lat="45.903632" lon="6.145573"><ele>420.2</ele></trkpt>
      <trkpt lat="45.903696" lon="6.145521"><ele>419.7</ele></trkpt>
      <trkpt lat="45.903759" lon="6.145467"><ele>420.2</ele></trkpt>
      <trkpt lat="45.903822" lon="6.145412"><ele>419.3</ele></trkpt>
      <trkpt lat="45.903885" lon="6.145356"><ele>419.0</ele></trkpt>
      <trkpt lat="45.903947" lon="6.145299"><ele>420.2</ele></trkpt>
      <trkpt lat="45.904010" lon="6.145241"><ele>420.1</ele></trkpt>
      <trkpt lat="45.904072" lon="6.145182"><ele>419.9</ele></trkpt>
      <trkpt lat="45.904135" lon="6.145121"><ele>419.5</ele></trkpt>
      <trkpt lat="45.904197" lon="6.145060"><ele>419.9</ele></trkpt>
      <trkpt lat="45.904259" lon="6.144997"><ele>418.9</ele></trkpt>
      <trkpt lat="45.904320" lon="6.144933"><ele>420.7</ele></trkpt>
      <trkpt lat="45.904382" lon="6.144868"><ele>419.3</ele></trkpt>
      <trkpt lat="45.904443" lon="6.144802"><ele>419.1</ele></trkpt>
      <trkpt lat="45.904504" lon="6.144734"><ele>420.9</ele></trkpt>
      <trkpt lat="45.904566" lon="6.144666"><ele>420.3</ele></trkpt>
      <trkpt lat="45.904626" lon="6.144596"><ele>420.3</ele></trkpt>
      <trkpt lat="45.904687" lon="6.144526"><ele>421.1</ele></trkpt>
      <trkpt lat="45.904748" lon="6.144454"><ele>419.4</ele></trkpt>
      <trkpt lat="45.904808" lon="6.144381"><ele>420.0</ele></trkpt>
      <trkpt lat="45.904868" lon="6.144307"><ele>419.7</ele></trkpt>
      <trkpt lat="45.904928" lon="6.144231"><ele>420.3</ele></trkpt>
      <trkpt lat="45.904988" lon="6.144155"><ele>420.5</ele></trkpt>
      <trkpt lat="45.905047" lon="6.144078"><ele>419.3</ele></trkpt>
      <trkpt lat="45.905107" lon="6.143999"><ele>419.2</ele></trkpt>
      <trkpt lat="45.905166" lon="6.143919"><ele>420.3</ele></trkpt>
      <trkpt lat="45.905225" lon="6.143839"><ele>418.8</ele></trkpt>
      <trkpt lat="45.905283" lon="6.143757"><ele>419.5</ele></trkpt>
      <trkpt lat="45.905342" lon="6.143674"><ele>420.7</ele></trkpt>
      <trkpt lat="45.905400" lon="6.143590"><ele>420.7</ele></trkpt>
      <trkpt lat="45.905458" lon="6.143504"><ele>419.8</ele></trkpt>
      <trkpt lat="45.905516" lon="6.143418"><ele>419.7</ele></trkpt>
      <trkpt lat="45.905574" lon="6.143331"><ele>420.0</ele></trkpt>
      <trkpt lat="45.905631" lon="6.143242"><ele>419.4</ele></trkpt>
      <trkpt lat="45.905689" lon="6.143153"><ele>419.5</ele></trkpt>
      <trkpt lat="45.905746" lon="6.143062"><ele>420.9</ele></trkpt>
      <trkpt lat="45.905802" lon="6.142971"><ele>419.5</ele></trkpt>
      <trkpt lat="45.905859" lon="6.142878"><ele>420.2</ele></trkpt>
      <trkpt lat="45.905915" lon="6.142784"><ele>418.9</ele></trkpt>
      <trkpt lat="45.905971" lon="6.142689"><ele>420.9</ele></trkpt>
      <trkpt lat="45.906027" lon="6.142593"><ele>420.5</ele></trkpt>
      <trkpt lat="45.906083" lon="6.142496"><ele>419.9</ele></trkpt>
      <trkpt lat="45.906138" lon="6.142398"><ele>419.2</ele></trkpt>
      <trkpt lat="45.906193" lon="6.142299"><ele>420.8</ele></trkpt>
      <trkpt lat="45.906248" lon="6.142199"><ele>419.5</ele></trkpt>
      <trkpt lat="45.906303" lon="6.142098"><ele>419.3</ele></trkpt>
      <trkpt lat="45.906357" lon="6.141996"><ele>419.9</ele></trkpt>
      <trkpt lat="45.906411" lon="6.141893"><ele>420.7</ele></trkpt>
      <trkpt lat="45.906465" lon="6.141788"><ele>419.7</ele></trkpt>
      <trkpt lat="45.906519" lon="6.141683"><ele>418.8</ele></trkpt>
      <trkpt lat="45.906572" lon="6.141577"><ele>419.8</ele></trkpt>
      <trkpt lat="45.906625" lon="6.141470"><ele>419.0</ele></trkpt>
      <trkpt lat="45.906678" lon="6.141362"><ele>421.2</ele></trkpt>
      <trkpt lat="45.906731" lon="6.141252"><ele>419.4</ele></trkpt>
      <trkpt lat="45.906783" lon="6.141142"><ele>420.2</ele></trkpt>
      <trkpt lat="45.906835" lon="6.141031"><ele>420.2</ele></trkpt>
      <trkpt lat="45.906887" lon="6.140919"><ele>421.0</ele></trkpt>
      <trkpt lat="45.906938" lon="6.140806"><ele>420.6</ele></trkpt>
      <trkpt lat="45.906989" lon="6.140692"><ele>421.2</ele></trkpt>
      <trkpt lat="45.907040" lon="6.140577"><ele>419.4</ele></trkpt>
      <trkpt lat="45.907091" lon="6.140461"><ele>419.3</ele></trkpt>
      <trkpt lat="45.907142" lon="6.140344"><ele>420.0</ele></trkpt>
      <trkpt lat="45.907192" lon="6.140226"><ele>419.7</ele></trkpt>
      <trkpt lat="45.907241" lon="6.140107"><ele>420.7</ele></trkpt>
      <trkpt lat="45.907291" lon="6.139987"><ele>420.0</ele></trkpt>
      <trkpt lat="45.907340" lon="6.139867"><ele>421.1</ele></trkpt>
      <trkpt lat="45.907389" lon="6.139745"><ele>420.7</ele></trkpt>
      <trkpt lat="45.907438" lon="6.139623"><ele>420.0</ele></trkpt>
      <trkpt lat="45.907486" lon="6.139500"><ele>421.0</ele></trkpt>
      <trkpt lat="45.907534" lon="6.139375"><ele>419.7</ele></trkpt>
      <trkpt lat="45.907582" lon="6.139250"><ele>420.2</ele></trkpt>
      <trkpt lat="45.907630" lon="6.139124"><ele>421.0</ele></trkpt>
      <trkpt lat="45.907677" lon="6.138997"><ele>419.9</ele></trkpt>
      <trkpt lat="45.907724" lon="6.138870"><ele>419.6</ele></trkpt>
      <trkpt lat="45.907770" lon="6.138741"><ele>420.6</ele></trkpt>
      <trkpt lat="45.907817" lon="6.138612"><ele>421.0</ele></trkpt>
      <trkpt lat="45.907863" lon="6.138482"><ele>420.9</ele></trkpt>
      <trkpt lat="45.907908" lon="6.138350"><ele>419.2</ele></trkpt>
      <trkpt lat="45.907954" lon="6.138219"><ele>419.4</ele></trkpt>
      <trkpt lat="45.907999" lon="6.138086"><ele>419.6</ele></trkpt>
      <trkpt lat="45.908043" lon="6.137952"><ele>418.9</ele></trkpt>
      <trkpt lat="45.908088" lon="6.137818"><ele>419.1</ele></trkpt>
      <trkpt lat="45.908132" lon="6.137683"><ele>420.4</ele></trkpt>
      <trkpt lat="45.908176" lon="6.137547"><ele>420.8</ele></trkpt>
      <trkpt lat="45.908219" lon="6.137410"><ele>419.3</ele></trkpt>
      <trkpt lat="45.908262" lon="6.137273"><ele>420.1</ele></trkpt>
      <trkpt lat="45.908305" lon="6.137135"><ele>419.5</ele></trkpt>
      <trkpt lat="45.908347" lon="6.136996"><ele>419.2</ele></trkpt>
      <trkpt lat="45.908389" lon="6.136856"><ele>420.3</ele></trkpt>
      <trkpt lat="45.908431" lon="6.136716"><ele>420.4</ele></trkpt>
      <trkpt lat="45.908473" lon="6.136574"><ele>421.0</ele></trkpt>
      <trkpt lat="45.908514" lon="6.136432"><ele>421.0</ele></trkpt>
      <trkpt lat="45.908555" lon="6.136290"><ele>419.4</ele></trkpt>
      <trkpt lat="45.908595" lon="6.136147"><ele>420.5</ele></trkpt>
      <trkpt lat="45.908635" lon="6.136003"><ele>419.0</ele></trkpt>
      <trkpt lat="45.908675" lon="6.135858"><ele>420.8</ele></trkpt>
      <trkpt lat="45.908714" lon="6.135713"><ele>419.6</ele></trkpt>
      <trkpt lat="45.908753" lon="6.135567"><ele>419.5</ele></trkpt>
      <trkpt lat="45.908792" lon="6.135420"><ele>420.5</ele></trkpt>
      <trkpt lat="45.908831" lon="6.135273"><ele>419.0</ele></trkpt>
      <trkpt lat="45.908869" lon="6.135125"><ele>420.9</ele></trkpt>
      <trkpt lat="45.908906" lon="6.134976"><ele>419.6</ele></trkpt>
      <trkpt lat="45.908944" lon="6.134827"><ele>419.4</ele></trkpt>
      <trkpt lat="45.908981" lon="6.134677"><ele>420.3</ele></trkpt>
      <trkpt lat="45.909017" lon="6.134526"><ele>419.9</ele></trkpt>
      <trkpt lat="45.909054" lon="6.134375"><ele>420.1</ele></trkpt>
      <trkpt lat="45.909089" lon="6.134224"><ele>421.1</ele></trkpt>
      <trkpt lat="45.909125" lon="6.134072"><ele>419.9</ele></trkpt>
      <trkpt lat="45.909160" lon="6.133919"><ele>421.2</ele></trkpt>
      <trkpt lat="45.909195" lon="6.133765"><ele>418.9</ele></trkpt>
      <trkpt lat="45.909230" lon="6.133612"><ele>420.2</ele></trkpt>
      <trkpt lat="45.909264" lon="6.133457"><ele>420.4</ele></trkpt>
      <trkpt lat="45.909297" lon="6.133302"><ele>419.2</ele></trkpt>
      <trkpt lat="45.909331" lon="6.133147"><ele>420.3</ele></trkpt>
      <trkpt lat="45.909364" lon="6.132991"><ele>420.7</ele></trkpt>
      <trkpt lat="45.909396" lon="6.132834"><ele>420.2</ele></trkpt>
      <trkpt lat="45.909429" lon="6.132677"><ele>418.9</ele></trkpt>
      <trkpt lat="45.909461" lon="6.132520"><ele>421.0</ele></trkpt>
      <trkpt lat="45.909492" lon="6.132362"><ele>419.9</ele></trkpt>
      <trkpt lat="45.909523" lon="6.132203"><ele>419.8</ele></trkpt>
      <trkpt lat="45.909554" lon="6.132044"><ele>420.8</ele></trkpt>
      <trkpt lat="45.909584" lon="6.131885"><ele>420.6</ele></trkpt>
      <trkpt lat="45.909615" lon="6.131725"><ele>419.1</ele></trkpt>
      <trkpt lat="45.909644" lon="6.131565"><ele>421.0</ele></trkpt>
      <trkpt lat="45.909673" lon="6.131404"><ele>419.6</ele></trkpt>
      <trkpt lat="45.909702" lon="6.131243"><ele>419.0</ele></trkpt>
      <trkpt lat="45.909731" lon="6.131082"><ele>419.3</ele></trkpt>
      <trkpt lat="45.909759" lon="6.130920"><ele>418.9</ele></trkpt>
      <trkpt lat="45.909787" lon="6.130758"><ele>420.7</ele></trkpt>
      <trkpt lat="45.909814" lon="6.130595"><ele>420.7</ele></trkpt>
      <trkpt lat="45.909841" lon="6.130432"><ele>420.2</ele></trkpt>
      <trkpt lat="45.909867" lon="6.130269"><ele>418.8</ele></trkpt>
      <trkpt lat="45.909894" lon="6.130105"><ele>419.8</ele></trkpt>
      <trkpt lat="45.909919" lon="6.129941"><ele>420.8</ele></trkpt>
      <trkpt lat="45.909945" lon="6.129777"><ele>419.9</ele></trkpt>
      <trkpt lat="45.909970" lon="6.129612"><ele>419.2</ele></trkpt>
      <trkpt lat="45.909994" lon="6.129447"><ele>419.3</ele></trkpt>
      <trkpt lat="45.910019" lon="6.129282"><ele>419.2</ele></trkpt>
      <trkpt lat="45.910042" lon="6.129116"><ele>420.2</ele></trkpt>
      <trkpt lat="45.910066" lon="6.128950"><ele>420.2</ele></trkpt>
      <trkpt lat="45.910089" lon="6.128784"><ele>419.5</ele></trkpt>
      <trkpt lat="45.910111" lon="6.128618"><ele>420.4</ele></trkpt>
      <trkpt lat="45.910134" lon="6.128451"><ele>419.1</ele></trkpt>
      <trkpt lat="45.910156" lon="6.128284"><ele>420.9</ele></trkpt>
      <trkpt lat="45.910177" lon="6.128117"><ele>419.0</ele></trkpt>
      <trkpt lat="45.910198" lon="6.127950"><ele>421.2</ele></trkpt>
      <trkpt lat="45.910219" lon="6.127782"><ele>419.7</ele></trkpt>
      <trkpt lat="45.910239" lon="6.127614"><ele>420.6</ele></trkpt>
      <trkpt lat="45.910259" lon="6.127446"><ele>420.8</ele></trkpt>
      <trkpt lat="45.910278" lon="6.127278"><ele>422.9</ele></trkpt>
      <trkpt lat="45.910297" lon="6.127110"><ele>422.8</ele></trkpt>
      <trkpt lat="45.910316" lon="6.126941"><ele>424.0</ele></trkpt>
      <trkpt lat="45.910334" lon="6.126773"><ele>423.0</ele></trkpt>
      <trkpt lat="45.910352" lon="6.126604"><ele>423.7</ele></trkpt>
      <trkpt lat="45.910369" lon="6.126435"><ele>424.2</ele></trkpt>
      <trkpt lat="45.910386" lon="6.126266"><ele>425.1</ele></trkpt>
      <trkpt lat="45.910402" lon="6.126096"><ele>426.6</ele></trkpt>
      <trkpt lat="45.910419" lon="6.125927"><ele>426.1</ele></trkpt>
      <trkpt lat="45.910434" lon="6.125757"><ele>429.0</ele></trkpt>
      <trkpt lat="45.910450" lon="6.125588"><ele>427.9</ele></trkpt>
      <trkpt lat="45.910465" lon="6.125418"><ele>428.1</ele></trkpt>
      <trkpt lat="45.910479" lon="6.125248"><ele>428.9</ele></trkpt>
      <trkpt lat="45.910493" lon="6.125078"><ele>429.8</ele></trkpt>
      <trkpt lat="45.910507" lon="6.124909"><ele>430.7</ele></trkpt>
      <trkpt lat="45.910520" lon="6.124739"><ele>431.4</ele></trkpt>
      <trkpt lat="45.910533" lon="6.124569"><ele>433.2</ele></trkpt>
      <trkpt lat="45.910545" lon="6.124398"><ele>433.1</ele></trkpt>
      <trkpt lat="45.910557" lon="6.124228"><ele>433.4</ele></trkpt>
      <trkpt lat="45.910569" lon="6.124058"><ele>432.9</ele></trkpt>
      <trkpt lat="45.910580" lon="6.123888"><ele>433.9</ele></trkpt>
      <trkpt lat="45.910591" lon="6.123718"><ele>435.7</ele></trkpt>
      <trkpt lat="45.910601" lon="6.123548"><ele>436.2</ele></trkpt>
      <trkpt lat="45.910611" lon="6.123378"><ele>436.2</ele></trkpt>
      <trkpt lat="45.910621" lon="6.123207"><ele>435.8</ele></trkpt>
      <trkpt lat="45.910630" lon="6.123037"><ele>438.0</ele></trkpt>
      <trkpt lat="45.910638" lon="6.122867"><ele>438.6</ele></trkpt>
      <trkpt lat="45.910646" lon="6.122697"><ele>437.5</ele></trkpt>
      <trkpt lat="45.910654" lon="6.122527"><ele>438.2</ele></trkpt>
      <trkpt lat="45.910662" lon="6.122357"><ele>439.3</ele></trkpt>
      <trkpt lat="45.910669" lon="6.122187"><ele>439.7</ele></trkpt>
      <trkpt lat="45.910675" lon="6.122018"><ele>440.4</ele></trkpt>
      <trkpt lat="45.910681" lon="6.121848"><ele>441.9</ele></trkpt>
      <trkpt lat="45.910687" lon="6.121678"><ele>442.3</ele></trkpt>
      <trkpt lat="45.910692" lon="6.121509"><ele>443.7</ele></trkpt>
      <trkpt lat="45.910697" lon="6.121339"><ele>443.5</ele></trkpt>
      <trkpt lat="45.910702" lon="6.121170"><ele>444.9</ele></trkpt>
      <trkpt lat="45.910706" lon="6.121001"><ele>444.6</ele></trkpt>
      <trkpt lat="45.910709" lon="6.120831"><ele>444.3</ele></trkpt>
      <trkpt lat="45.910712" lon="6.120662"><ele>446.2</ele></trkpt>
      <trkpt lat="45.910715" lon="6.120494"><ele>446.4</ele></trkpt>
      <trkpt lat="45.910718" lon="6.120325"><ele>447.1</ele></trkpt>
      <trkpt lat="45.910719" lon="6.120156"><ele>448.3</ele></trkpt>
      <trkpt lat="45.910721" lon="6.119988"><ele>449.4</ele></trkpt>
      <trkpt lat="45.910722" lon="6.119820"><ele>449.1</ele></trkpt>
      <trkpt lat="45.910723" lon="6.119652"><ele>449.9</ele></trkpt>
      <trkpt lat="45.910723" lon="6.119484"><ele>450.9</ele></trkpt>
      <trkpt lat="45.910723" lon="6.119316"><ele>450.2</ele></trkpt>
      <trkpt lat="45.910722" lon="6.119148"><ele>452.2</ele></trkpt>
      <trkpt lat="45.910721" lon="6.118981"><ele>451.8</ele></trkpt>
      <trkpt lat="45.910719" lon="6.118814"><ele>453.3</ele></trkpt>
      <trkpt lat="45.910718" lon="6.118647"><ele>454.1</ele></trkpt>
      <trkpt lat="45.910715" lon="6.118480"><ele>454.7</ele></trkpt>
      <trkpt lat="45.910712" lon="6.118314"><ele>455.1</ele></trkpt>
      <trkpt lat="45.910709" lon="6.118148"><ele>454.9</ele></trkpt>
      <trkpt lat="45.910706" lon="6.117982"><ele>454.2</ele></trkpt>
      <trkpt lat="45.910702" lon="6.117816"><ele>456.5</ele></trkpt>
      <trkpt lat="45.910697" lon="6.117650"><ele>455.6</ele></trkpt>
      <trkpt lat="45.910692" lon="6.117485"><ele>457.5</ele></trkpt>
      <trkpt lat="45.910687" lon="6.117320"><ele>456.6</ele></trkpt>
      <trkpt lat="45.910681" lon="6.117155"><ele>459.5</ele></trkpt>
      <trkpt lat="45.910675" lon="6.116991"><ele>457.8</ele></trkpt>
      <trkpt lat="45.910669" lon="6.116827"><ele>460.5</ele></trkpt>
      <trkpt lat="45.910662" lon="6.116663"><ele>461.1</ele></trkpt>
      <trkpt lat="45.910654" lon="6.116499"><ele>459.7</ele></trkpt>
      <trkpt lat="45.910646" lon="6.116336"><ele>461.2</ele></trkpt>
      <trkpt lat="45.910638" lon="6.116173"><ele>461.0</ele></trkpt>
      <trkpt lat="45.910630" lon="6.116010"><ele>462.6</ele></trkpt>
      <trkpt lat="45.910621" lon="6.115847"><ele>462.1</ele></trkpt>
      <trkpt lat="45.910611" lon="6.115685"><ele>463.4</ele></trkpt>
      <trkpt lat="45.910601" lon="6.115523"><ele>463.7</ele></trkpt>
      <trkpt lat="45.910591" lon="6.115362"><ele>464.8</ele></trkpt>
      <trkpt lat="45.910580" lon="6.115201"><ele>466.3</ele></trkpt>
      <trkpt lat="45.910569" lon="6.115040"><ele>466.9</ele></trkpt>
      <trkpt lat="45.910557" lon="6.114879"><ele>467.9</ele></trkpt>
      <trkpt lat="45.910545" lon="6.114719"><ele>467.1</ele></trkpt>
      <trkpt lat="45.910533" lon="6.114560"><ele>468.8</ele></trkpt>
      <trkpt lat="45.910520" lon="6.114400"><ele>468.7</ele></trkpt>
      <trkpt lat="45.910507" lon="6.114241"><ele>469.2</ele></trkpt>
      <trkpt lat="45.910493" lon="6.114082"><ele>468.9</ele></trkpt>
      <trkpt lat="45.910479" lon="6.113924"><ele>470.6</ele></trkpt>
      <trkpt lat="45.910465" lon="6.113766"><ele>471.1</ele></trkpt>
      <trkpt lat="45.910450" lon="6.113608"><ele>470.6</ele></trkpt>
      <trkpt lat="45.910434" lon="6.113451"><ele>471.6</ele></trkpt>
      <trkpt lat="45.910419" lon="6.113294"><ele>471.6</ele></trkpt>
      <trkpt lat="45.910402" lon="6.113138"><ele>472.6</ele></trkpt>
      <trkpt lat="45.910386" lon="6.112982"><ele>473.5</ele></trkpt>
      <trkpt lat="45.910369" lon="6.112826"><ele>474.1</ele></trkpt>
      <trkpt lat="45.910352" lon="6.112671"><ele>475.3</ele></trkpt>
      <trkpt lat="45.910334" lon="6.112516"><ele>477.0</ele></trkpt>
      <trkpt lat="45.910316" lon="6.112361"><ele>476.5</ele></trkpt>
      <trkpt lat="45.910297" lon="6.112207"><ele>477.2</ele></trkpt>
      <trkpt lat="45.910278" lon="6.112054"><ele>478.6</ele></trkpt>
      <trkpt lat="45.910259" lon="6.111900"><ele>479.3</ele></trkpt>
      <trkpt lat="45.910239" lon="6.111748"><ele>479.9</ele></trkpt>
      <trkpt lat="45.910219" lon="6.111595"><ele>479.6</ele></trkpt>
      <trkpt lat="45.910198" lon="6.111443"><ele>480.6</ele></trkpt>
      <trkpt lat="45.910177" lon="6.111292"><ele>479.6</ele></trkpt>
      <trkpt lat="45.910156" lon="6.111141"><ele>480.3</ele></trkpt>
      <trkpt lat="45.910134" lon="6.110990"><ele>481.7</ele></trkpt>
      <trkpt lat="45.910111" lon="6.110840"><ele>483.5</ele></trkpt>
      <trkpt lat="45.910089" lon="6.110690"><ele>483.4</ele></trkpt>
      <trkpt lat="45.910066" lon="6.110541"><ele>482.4</ele></trkpt>
      <trkpt lat="45.910042" lon="6.110392"><ele>483.4</ele></trkpt>
      <trkpt lat="45.910019" lon="6.110244"><ele>485.4</ele></trkpt>
      <trkpt lat="45.909994" lon="6.110096"><ele>486.1</ele></trkpt>
      <trkpt lat="45.909970" lon="6.109948"><ele>486.6</ele></trkpt>
      <trkpt lat="45.909945" lon="6.109801"><ele>487.3</ele></trkpt>
      <trkpt lat="45.909919" lon="6.109655"><ele>487.0</ele></trkpt>
      <trkpt lat="45.909894" lon="6.109509"><ele>486.7</ele></trkpt>
      <trkpt lat="45.909867" lon="6.109363"><ele>487.7</ele></trkpt>
      <trkpt lat="45.909841" lon="6.109218"><ele>489.4</ele></trkpt>
      <trkpt lat="45.909814" lon="6.109074"><ele>490.1</ele></trkpt>
      <trkpt lat="45.909787" lon="6.108929"><ele>490.1</ele></trkpt>
      <trkpt lat="45.909759" lon="6.108786"><ele>491.1</ele></trkpt>
      <trkpt lat="45.909731" lon="6.108643"><ele>490.7</ele></trkpt>
      <trkpt lat="45.909702" lon="6.108500"><ele>491.5</ele></trkpt>
      <trkpt lat="45.909673" lon="6.108358"><ele>491.4</ele></trkpt>
      <trkpt lat="45.909644" lon="6.108216"><ele>494.1</ele></trkpt>
      <trkpt lat="45.909615" lon="6.108075"><ele>494.9</ele></trkpt>
      <trkpt lat="45.909584" lon="6.107934"><ele>493.4</ele></trkpt>
      <trkpt lat="45.909554" lon="6.107794"><ele>494.7</ele></trkpt>
      <trkpt lat="45.909523" lon="6.107655"><ele>495.2</ele></trkpt>
      <trkpt lat="45.909492" lon="6.107515"><ele>496.9</ele></trkpt>
      <trkpt lat="45.909461" lon="6.107377"><ele>497.8</ele></trkpt>
      <trkpt lat="45.909429" lon="6.107239"><ele>496.4</ele></trkpt>
      <trkpt lat="45.909396" lon="6.107101"><ele>497.3</ele></trkpt>
      <trkpt lat="45.909364" lon="6.106964"><ele>497.6</ele></trkpt>
      <trkpt lat="45.909331" lon="6.106827"><ele>499.6</ele></trkpt>
      <trkpt lat="45.909297" lon="6.106691"><ele>499.3</ele></trkpt>
      <trkpt lat="45.909264" lon="6.106556"><ele>500.4</ele></trkpt>
      <trkpt lat="45.909230" lon="6.106421"><ele>502.2</ele></trkpt>
      <trkpt lat="45.909195" lon="6.106286"><ele>501.0</ele></trkpt>
      <trkpt lat="45.909160" lon="6.106153"><ele>502.7</ele></trkpt>
      <trkpt lat="45.909125" lon="6.106019"><ele>504.0</ele></trkpt>
      <trkpt lat="45.909089" lon="6.105886"><ele>504.6</ele></trkpt>
      <trkpt lat="45.909054" lon="6.105754"><ele>504.4</ele></trkpt>
      <trkpt lat="45.909017" lon="6.105622"><ele>505.1</ele></trkpt>
      <trkpt lat="45.908981" lon="6.105491"><ele>505.4</ele></trkpt>
      <trkpt lat="45.908944" lon="6.105360"><ele>506.6</ele></trkpt>
      <trkpt lat="45.908906" lon="6.105230"><ele>506.8</ele></trkpt>
      <trkpt lat="45.908869" lon="6.105101"><ele>507.1</ele></trkpt>
      <trkpt lat="45.908831" lon="6.104972"><ele>508.3</ele></trkpt>
      <trkpt lat="45.908792" lon="6.104843"><ele>508.2</ele></trkpt>
      <trkpt lat="45.908753" lon="6.104715"><ele>507.8</ele></trkpt>
      <trkpt lat="45.908714" lon="6.104588"><ele>508.9</ele></trkpt>
      <trkpt lat="45.908675" lon="6.104461"><ele>511.2</ele></trkpt>
      <trkpt lat="45.908635" lon="6.104335"><ele>511.0</ele></trkpt>
      <trkpt lat="45.908595" lon="6.104209"><ele>511.4</ele></trkpt>
      <trkpt lat="45.908555" lon="6.104084"><ele>510.7</ele></trkpt>
      <trkpt lat="45.908514" lon="6.103960"><ele>509.5</ele></trkpt>
      <trkpt lat="45.908473" lon="6.103836"><ele>510.9</ele></trkpt>
      <trkpt lat="45.908431" lon="6.103712"><ele>510.0</ele></trkpt>
      <trkpt lat="45.908389" lon="6.103590"><ele>511.9</ele></trkpt>
      <trkpt lat="45.908347" lon="6.103467"><ele>511.1</ele></trkpt>
      <trkpt lat="45.908305" lon="6.103346"><ele>510.1</ele></trkpt>
      <trkpt lat="45.908262" lon="6.103225"><ele>512.1</ele></trkpt>
      <trkpt lat="45.908219" lon="6.103104"><ele>511.1</ele></trkpt>
      <trkpt lat="45.908176" lon="6.102984"><ele>510.4</ele></trkpt>
      <trkpt lat="45.908132" lon="6.102865"><ele>511.9</ele></trkpt>
      <trkpt lat="45.908088" lon="6.102746"><ele>510.3</ele></trkpt>
      <trkpt lat="45.908043" lon="6.102628"><ele>510.4</ele></trkpt>
      <trkpt lat="45.907999" lon="6.102511"><ele>511.2</ele></trkpt>
      <trkpt lat="45.907954" lon="6.102394"><ele>512.2</ele></trkpt>
      <trkpt lat="45.907908" lon="6.102277"><ele>512.6</ele></trkpt>
      <trkpt lat="45.907863" lon="6.102162"><ele>511.0</ele></trkpt>
      <trkpt lat="45.907817" lon="6.102046"><ele>512.2</ele></trkpt>
      <trkpt lat="45.907770" lon="6.101932"><ele>512.4</ele></trkpt>
      <trkpt lat="45.907724" lon="6.101818"><ele>512.3</ele></trkpt>
      <trkpt lat="45.907677" lon="6.101705"><ele>511.4</ele></trkpt>
      <trkpt lat="45.907630" lon="6.101592"><ele>512.4</ele></trkpt>
      <trkpt lat="45.907582" lon="6.101480"><ele>512.2</ele></trkpt>
      <trkpt lat="45.907534" lon="6.101368"><ele>511.7</ele></trkpt>
      <trkpt lat="45.907486" lon="6.101258"><ele>513.1</ele></trkpt>
      <trkpt lat="45.907438" lon="6.101147"><ele>512.3</ele></trkpt>
      <trkpt lat="45.907389" lon="6.101038"><ele>512.0</ele></trkpt>
      <trkpt lat="45.907340" lon="6.100929"><ele>512.0</ele></trkpt>
      <trkpt lat="45.907291" lon="6.100820"><ele>514.0</ele></trkpt>
      <trkpt lat="45.907241" lon="6.100713"><ele>513.2</ele></trkpt>
      <trkpt lat="45.907192" lon="6.100606"><ele>514.2</ele></trkpt>
      <trkpt lat="45.907142" lon="6.100499"><ele>514.3</ele></trkpt>
      <trkpt lat="45.907091" lon="6.100393"><ele>514.6</ele></trkpt>
      <trkpt lat="45.907040" lon="6.100288"><ele>512.8</ele></trkpt>
      <trkpt lat="45.906989" lon="6.100184"><ele>514.8</ele></trkpt>
      <trkpt lat="45.906938" lon="6.100080"><ele>513.0</ele></trkpt>
      <trkpt lat="45.906887" lon="6.099976"><ele>513.8</ele></trkpt>
      <trkpt lat="45.906835" lon="6.099874"><ele>513.5</ele></trkpt>
      <trkpt lat="45.906783" lon="6.099772"><ele>514.3</ele></trkpt>
      <trkpt lat="45.906731" lon="6.099671"><ele>513.2</ele></trkpt>
      <trkpt lat="45.906678" lon="6.099570"><ele>513.3</ele></trkpt>
      <trkpt lat="45.906625" lon="6.099470"><ele>514.3</ele></trkpt>
      <trkpt lat="45.906572" lon="6.099371"><ele>513.7</ele></trkpt>
      <trkpt lat="45.906519" lon="6.099272"><ele>515.7</ele></trkpt>
      <trkpt lat="45.906465" lon="6.099174"><ele>515.1</ele></trkpt>
      <trkpt lat="45.906411" lon="6.099077"><ele>515.3</ele></trkpt>
      <trkpt lat="45.906357" lon="6.098980"><ele>513.8</ele></trkpt>
      <trkpt lat="45.906303" lon="6.098884"><ele>515.3</ele></trkpt>
      <trkpt lat="45.906248" lon="6.098789"><ele>515.0</ele></trkpt>
      <trkpt lat="45.906193" lon="6.098694"><ele>514.4</ele></trkpt>
      <trkpt lat="45.906138" lon="6.098600"><ele>514.4</ele></trkpt>
      <trkpt lat="45.906083" lon="6.098507"><ele>515.8</ele></trkpt>
      <trkpt lat="45.906027" lon="6.098415"><ele>514.4</ele></trkpt>
      <trkpt lat="45.905971" lon="6.098323"><ele>515.9</ele></trkpt>
      <trkpt lat="45.905915" lon="6.098232"><ele>516.6</ele></trkpt>
      <trkpt lat="45.905859" lon="6.098141"><ele>516.2</ele></trkpt>
      <trkpt lat="45.905802" lon="6.098051"><ele>516.1</ele></trkpt>
      <trkpt lat="45.905746" lon="6.097962"><ele>515.1</ele></trkpt>
      <trkpt lat="45.905689" lon="6.097874"><ele>515.4</ele></trkpt>
      <trkpt lat="45.905631" lon="6.097786"><ele>515.2</ele></trkpt>
      <trkpt lat="45.905574" lon="6.097699"><ele>515.3</ele></trkpt>
      <trkpt lat="45.905516" lon="6.097613"><ele>515.2</ele></trkpt>
      <trkpt lat="45.905458" lon="6.097528"><ele>515.3</ele></trkpt>
      <trkpt lat="45.905400" lon="6.097443"><ele>516.8</ele></trkpt>
      <trkpt lat="45.905342" lon="6.097359"><ele>515.7</ele></trkpt>
      <trkpt lat="45.905283" lon="6.097276"><ele>516.7</ele></trkpt>
      <trkpt lat="45.905225" lon="6.097193"><ele>515.7</ele></trkpt>
      <trkpt lat="45.905166" lon="6.097111"><ele>518.0</ele></trkpt>
      <trkpt lat="45.905107" lon="6.097030"><ele>516.2</ele></trkpt>
      <trkpt lat="45.905047" lon="6.096950"><ele>516.8</ele></trkpt>
      <trkpt lat="45.904988" lon="6.096870"><ele>516.3</ele></trkpt>
      <trkpt lat="45.904928" lon="6.096791"><ele>518.6</ele></trkpt>
      <trkpt lat="45.904868" lon="6.096713"><ele>518.1</ele></trkpt>
      <trkpt lat="45.904808" lon="6.096636"><ele>516.4</ele></trkpt>
      <trkpt lat="45.904748" lon="6.096559"><ele>517.6</ele></trkpt>
      <trkpt lat="45.904687" lon="6.096484"><ele>518.6</ele></trkpt>
      <trkpt lat="45.904626" lon="6.096409"><ele>517.1</ele></trkpt>
      <trkpt lat="45.904566" lon="6.096334"><ele>517.2</ele></trkpt>
      <trkpt lat="45.904504" lon="6.096261"><ele>520.0</ele></trkpt>
      <trkpt lat="45.904443" lon="6.096188"><ele>521.0</ele></trkpt>
      <trkpt lat="45.904382" lon="6.096116"><ele>520.7</ele></trkpt>
      <trkpt lat="45.904320" lon="6.096045"><ele>522.2</ele></trkpt>
      <trkpt lat="45.904259" lon="6.095975"><ele>522.8</ele></trkpt>
      <trkpt lat="45.904197" lon="6.095905"><ele>524.2</ele></trkpt>
      <trkpt lat="45.904135" lon="6.095836"><ele>524.7</ele></trkpt>
      <trkpt lat="45.904072" lon="6.095769"><ele>525.6</ele></trkpt>
      <trkpt lat="45.904010" lon="6.095701"><ele>525.7</ele></trkpt>
      <trkpt lat="45.903947" lon="6.095635"><ele>527.7</ele></trkpt>
      <trkpt lat="45.903885" lon="6.095570"><ele>527.0</ele></trkpt>
      <trkpt lat="45.903822" lon="6.095505"><ele>528.5</ele></trkpt>
      <trkpt lat="45.903759" lon="6.095441"><ele>530.9</ele></trkpt>
      <trkpt lat="45.903696" lon="6.095378"><ele>531.7</ele></trkpt>
      <trkpt lat="45.903632" lon="6.095316"><ele>531.0</ele></trkpt>
      <trkpt lat="45.903569" lon="6.095254"><ele>531.6</ele></trkpt>
      <trkpt lat="45.903505" lon="6.095194"><ele>532.8</ele></trkpt>
      <trkpt lat="45.903441" lon="6.095134"><ele>534.4</ele></trkpt>
      <trkpt lat="45.903378" lon="6.095075"><ele>535.6</ele></trkpt>
      <trkpt lat="45.903314" lon="6.095017"><ele>535.7</ele></trkpt>
      <trkpt lat="45.903249" lon="6.094960"><ele>537.3</ele></trkpt>
      <trkpt lat="45.903185" lon="6.094904"><ele>538.8</ele></trkpt>
      <trkpt lat="45.903121" lon="6.094848"><ele>539.0</ele></trkpt>
      <trkpt lat="45.903056" lon="6.094794"><ele>540.5</ele></trkpt>
      <trkpt lat="45.902992" lon="6.094740"><ele>540.9</ele></trkpt>
      <trkpt lat="45.902927" lon="6.094687"><ele>541.3</ele></trkpt>
      <trkpt lat="45.902862" lon="6.094635"><ele>541.4</ele></trkpt>
      <trkpt lat="45.902797" lon="6.094584"><ele>544.2</ele></trkpt>
      <trkpt lat="45.902732" lon="6.094534"><ele>543.9</ele></trkpt>
      <trkpt lat="45.902667" lon="6.094485"><ele>544.5</ele></trkpt>
      <trkpt lat="45.902601" lon="6.094437"><ele>545.0</ele></trkpt>
      <trkpt lat="45.902536" lon="6.094389"><ele>546.3</ele></trkpt>
      <trkpt lat="45.902470" lon="6.094342"><ele>548.3</ele></trkpt>
      <trkpt lat="45.902405" lon="6.094297"><ele>549.6</ele></trkpt>
      <trkpt lat="45.902339" lon="6.094252"><ele>549.7</ele></trkpt>
      <trkpt lat="45.902273" lon="6.094208"><ele>550.8</ele></trkpt>
      <trkpt lat="45.902207" lon="6.094165"><ele>552.0</ele></trkpt>
      <trkpt lat="45.902141" lon="6.094123"><ele>551.6</ele></trkpt>
      <trkpt lat="45.902075" lon="6.094082"><ele>554.1</ele></trkpt>
      <trkpt lat="45.902009" lon="6.094042"><ele>554.1</ele></trkpt>
      <trkpt lat="45.901943" lon="6.094003"><ele>554.7</ele></trkpt>
      <trkpt lat="45.901877" lon="6.093965"><ele>554.6</ele></trkpt>
      <trkpt lat="45.901810" lon="6.093927"><ele>556.1</ele></trkpt>
      <trkpt lat="45.901744" lon="6.093891"><ele>557.6</ele></trkpt>
      <trkpt lat="45.901677" lon="6.093856"><ele>558.2</ele></trkpt>
      <trkpt lat="45.901611" lon="6.093821"><ele>559.8</ele></trkpt>
      <trkpt lat="45.901544" lon="6.093788"><ele>561.4</ele></trkpt>
      <trkpt lat="45.901477" lon="6.093755"><ele>560.7</ele></trkpt>
      <trkpt lat="45.901411" lon="6.093724"><ele>560.9</ele></trkpt>
      <trkpt lat="45.901344" lon="6.093693"><ele>562.7</ele></trkpt>
      <trkpt lat="45.901277" lon="6.093663"><ele>562.7</ele></trkpt>
      <trkpt lat="45.901210" lon="6.093635"><ele>564.3</ele></trkpt>
      <trkpt lat="45.901143" lon="6.093607"><ele>564.6</ele></trkpt>
      <trkpt lat="45.901076" lon="6.093581"><ele>565.7</ele></trkpt>
      <trkpt lat="45.901009" lon="6.093555"><ele>568.1</ele></trkpt>
      <trkpt lat="45.900942" lon="6.093530"><ele>567.6</ele></trkpt>
      <trkpt lat="45.900875" lon="6.093507"><ele>568.4</ele></trkpt>
      <trkpt lat="45.900808" lon="6.093484"><ele>570.4</ele></trkpt>
      <trkpt lat="45.900741" lon="6.093462"><ele>570.3</ele></trkpt>
      <trkpt lat="45.900673" lon="6.093442"><ele>572.3</ele></trkpt>
      <trkpt lat="45.900606" lon="6.093422"><ele>574.1</ele></trkpt>
      <trkpt lat="45.900539" lon="6.093404"><ele>574.8</ele></trkpt>
      <trkpt lat="45.900471" lon="6.093386"><ele>575.3</ele></trkpt>
      <trkpt lat="45.900404" lon="6.093370"><ele>575.3</ele></trkpt>
      <trkpt lat="45.900337" lon="6.093354"><ele>576.8</ele></trkpt>
      <trkpt lat="45.900269" lon="6.093340"><ele>577.9</ele></trkpt>
      <trkpt lat="45.900202" lon="6.093326"><ele>578.7</ele></trkpt>
      <trkpt lat="45.900135" lon="6.093314"><ele>579.7</ele></trkpt>
      <trkpt lat="45.900067" lon="6.093303"><ele>580.7</ele></trkpt>
      <trkpt lat="45.900000" lon="6.093292"><ele>579.8</ele></trkpt>
      <trkpt lat="45.899933" lon="6.093283"><ele>579.7</ele></trkpt>
      <trkpt lat="45.899865" lon="6.093275"><ele>579.4</ele></trkpt>
      <trkpt lat="45.899798" lon="6.093268"><ele>580.1</ele></trkpt>
      <trkpt lat="45.899731" lon="6.093262"><ele>579.6</ele></trkpt>
      <trkpt lat="45.899663" lon="6.093257"><ele>581.1</ele></trkpt>
      <trkpt lat="45.899596" lon="6.093253"><ele>579.3</ele></trkpt>
      <trkpt lat="45.899529" lon="6.093250"><ele>580.6</ele></trkpt>
      <trkpt lat="45.899461" lon="6.093249"><ele>580.4</ele></trkpt>
      <trkpt lat="45.899394" lon="6.093248"><ele>578.9</ele></trkpt>
      <trkpt lat="45.899327" lon="6.093248"><ele>579.4</ele></trkpt>
      <trkpt lat="45.899259" lon="6.093250"><ele>578.0</ele></trkpt>
      <trkpt lat="45.899192" lon="6.093252"><ele>578.2</ele></trkpt>
      <trkpt lat="45.899125" lon="6.093256"><ele>579.4</ele></trkpt>
      <trkpt lat="45.899058" lon="6.093261"><ele>578.8</ele></trkpt>
      <trkpt lat="45.898991" lon="6.093267"><ele>578.1</ele></trkpt>
      <trkpt lat="45.898924" lon="6.093274"><ele>578.1</ele></trkpt>
      <trkpt lat="45.898857" lon="6.093282"><ele>577.6</ele></trkpt>
      <trkpt lat="45.898790" lon="6.093291"><ele>577.1</ele></trkpt>
      <trkpt lat="45.898723" lon="6.093301"><ele>576.7</ele></trkpt>
      <trkpt lat="45.898656" lon="6.093313"><ele>576.6</ele></trkpt>
      <trkpt lat="45.898589" lon="6.093325"><ele>578.0</ele></trkpt>
      <trkpt lat="45.898523" lon="6.093339"><ele>575.5</ele></trkpt>
      <trkpt lat="45.898456" lon="6.093354"><ele>576.2</ele></trkpt>
      <trkpt lat="45.898389" lon="6.093370"><ele>576.9</ele></trkpt>
      <trkpt lat="45.898323" lon="6.093387"><ele>574.8</ele></trkpt>
      <trkpt lat="45.898256" lon="6.093405"><ele>576.9</ele></trkpt>
      <trkpt lat="45.898190" lon="6.093424"><ele>576.2</ele></trkpt>
      <trkpt lat="45.898123" lon="6.093445"><ele>576.0</ele></trkpt>
      <trkpt lat="45.898057" lon="6.093466"><ele>575.0</ele></trkpt>
      <trkpt lat="45.897991" lon="6.093489"><ele>573.9</ele></trkpt>
      <trkpt lat="45.897925" lon="6.093513"><ele>575.1</ele></trkpt>
      <trkpt lat="45.897859" lon="6.093537"><ele>574.5</ele></trkpt>
      <trkpt lat="45.897793" lon="6.093564"><ele>573.5</ele></trkpt>
      <trkpt lat="45.897727" lon="6.093591"><ele>574.2</ele></trkpt>
      <trkpt lat="45.897661" lon="6.093619"><ele>573.1</ele></trkpt>
      <trkpt lat="45.897595" lon="6.093649"><ele>573.2</ele></trkpt>
      <trkpt lat="45.897530" lon="6.093679"><ele>574.4</ele></trkpt>
      <trkpt lat="45.897464" lon="6.093711"><ele>574.5</ele></trkpt>
      <trkpt lat="45.897399" lon="6.093744"><ele>572.7</ele></trkpt>
      <trkpt lat="45.897333" lon="6.093778"><ele>572.2</ele></trkpt>
      <trkpt lat="45.897268" lon="6.093813"><ele>572.1</ele></trkpt>
      <trkpt lat="45.897203" lon="6.093850"><ele>571.5</ele></trkpt>
      <trkpt lat="45.897138" lon="6.093887"><ele>572.9</ele></trkpt>
      <trkpt lat="45.897073" lon="6.093926"><ele>572.4</ele></trkpt>
      <trkpt lat="45.897008" lon="6.093966"><ele>572.4</ele></trkpt>
      <trkpt lat="45.896944" lon="6.094006"><ele>571.4</ele></trkpt>
      <trkpt lat="45.896879" lon="6.094049"><ele>571.7</ele></trkpt>
      <trkpt lat="45.896815" lon="6.094092"><ele>570.2</ele></trkpt>
      <trkpt lat="45.896751" lon="6.094136"><ele>571.2</ele></trkpt>
      <trkpt lat="45.896686" lon="6.094182"><ele>571.1</ele></trkpt>
      <trkpt lat="45.896622" lon="6.094229"><ele>570.4</ele></trkpt>
      <trkpt lat="45.896559" lon="6.094276"><ele>569.4</ele></trkpt>
      <trkpt lat="45.896495" lon="6.094325"><ele>571.0</ele></trkpt>
      <trkpt lat="45.896431" lon="6.094376"><ele>570.0</ele></trkpt>
      <trkpt lat="45.896368" lon="6.094427"><ele>569.1</ele></trkpt>
      <trkpt lat="45.896304" lon="6.094479"><ele>569.5</ele></trkpt>
      <trkpt lat="45.896241" lon="6.094533"><ele>569.6</ele></trkpt>
      <trkpt lat="45.896178" lon="6.094588"><ele>569.0</ele></trkpt>
      <trkpt lat="45.896115" lon="6.094644"><ele>568.4</ele></trkpt>
      <trkpt lat="45.896053" lon="6.094701"><ele>568.6</ele></trkpt>
      <trkpt lat="45.895990" lon="6.094759"><ele>568.5</ele></trkpt>
      <trkpt lat="45.895928" lon="6.094818"><ele>569.2</ele></trkpt>
      <trkpt lat="45.895865" lon="6.094879"><ele>569.3</ele></trkpt>
      <trkpt lat="45.895803" lon="6.094940"><ele>568.6</ele></trkpt>
      <trkpt lat="45.895741" lon="6.095003"><ele>567.9</ele></trkpt>
      <trkpt lat="45.895680" lon="6.095067"><ele>567.3</ele></trkpt>
      <trkpt lat="45.895618" lon="6.095132"><ele>568.7</ele></trkpt>
      <trkpt lat="45.895557" lon="6.095198"><ele>566.4</ele></trkpt>
      <trkpt lat="45.895496" lon="6.095266"><ele>566.4</ele></trkpt>
      <trkpt lat="45.895434" lon="6.095334"><ele>567.7</ele></trkpt>
      <trkpt lat="45.895374" lon="6.095404"><ele>566.9</ele></trkpt>
      <trkpt lat="45.895313" lon="6.095474"><ele>567.1</ele></trkpt>
      <trkpt lat="45.895252" lon="6.095546"><ele>565.2</ele></trkpt>
      <trkpt lat="45.895192" lon="6.095619"><ele>565.5</ele></trkpt>
      <trkpt lat="45.895132" lon="6.095693"><ele>566.4</ele></trkpt>
      <trkpt lat="45.895072" lon="6.095769"><ele>565.3</ele></trkpt>
      <trkpt lat="45.895012" lon="6.095845"><ele>566.3</ele></trkpt>
      <trkpt lat="45.894953" lon="6.095922"><ele>565.7</ele></trkpt>
      <trkpt lat="45.894893" lon="6.096001"><ele>566.0</ele></trkpt>
      <trkpt lat="45.894834" lon="6.096081"><ele>564.4</ele></trkpt>
      <trkpt lat="45.894775" lon="6.096161"><ele>564.8</ele></trkpt>
      <trkpt lat="45.894717" lon="6.096243"><ele>564.2</ele></trkpt>
      <trkpt lat="45.894658" lon="6.096326"><ele>565.5</ele></trkpt>
      <trkpt lat="45.894600" lon="6.096410"><ele>565.0</ele></trkpt>
      <trkpt lat="45.894542" lon="6.096496"><ele>564.4</ele></trkpt>
      <trkpt lat="45.894484" lon="6.096582"><ele>564.9</ele></trkpt>
      <trkpt lat="45.894426" lon="6.096669"><ele>563.3</ele></trkpt>
      <trkpt lat="45.894369" lon="6.096758"><ele>563.7</ele></trkpt>
      <trkpt lat="45.894311" lon="6.096847"><ele>563.0</ele></trkpt>
      <trkpt lat="45.894254" lon="6.096938"><ele>561.9</ele></trkpt>
      <trkpt lat="45.894198" lon="6.097029"><ele>562.0</ele></trkpt>
      <trkpt lat="45.894141" lon="6.097122"><ele>561.4</ele></trkpt>
      <trkpt lat="45.894085" lon="6.097216"><ele>562.2</ele></trkpt>
      <trkpt lat="45.894029" lon="6.097311"><ele>562.8</ele></trkpt>
      <trkpt lat="45.893973" lon="6.097407"><ele>562.4</ele></trkpt>
      <trkpt lat="45.893917" lon="6.097504"><ele>561.3</ele></trkpt>
      <trkpt lat="45.893862" lon="6.097602"><ele>562.7</ele></trkpt>
      <trkpt lat="45.893807" lon="6.097701"><ele>562.1</ele></trkpt>
      <trkpt lat="45.893752" lon="6.097801"><ele>562.0</ele></trkpt>
      <trkpt lat="45.893697" lon="6.097902"><ele>560.4</ele></trkpt>
      <trkpt lat="45.893643" lon="6.098004"><ele>560.5</ele></trkpt>
      <trkpt lat="45.893589" lon="6.098107"><ele>560.9</ele></trkpt>
      <trkpt lat="45.893535" lon="6.098212"><ele>560.7</ele></trkpt>
      <trkpt lat="45.893481" lon="6.098317"><ele>559.0</ele></trkpt>
      <trkpt lat="45.893428" lon="6.098423"><ele>560.6</ele></trkpt>
      <trkpt lat="45.893375" lon="6.098530"><ele>559.6</ele></trkpt>
      <trkpt lat="45.893322" lon="6.098638"><ele>559.0</ele></trkpt>
      <trkpt lat="45.893269" lon="6.098748"><ele>559.5</ele></trkpt>
      <trkpt lat="45.893217" lon="6.098858"><ele>558.7</ele></trkpt>
      <trkpt lat="45.893165" lon="6.098969"><ele>558.1</ele></trkpt>
      <trkpt lat="45.893113" lon="6.099081"><ele>557.7</ele></trkpt>
      <trkpt lat="45.893062" lon="6.099194"><ele>558.1</ele></trkpt>
      <trkpt lat="45.893011" lon="6.099308"><ele>558.2</ele></trkpt>
      <trkpt lat="45.892960" lon="6.099423"><ele>557.9</ele></trkpt>
      <trkpt lat="45.892909" lon="6.099539"><ele>557.2</ele></trkpt>
      <trkpt lat="45.892858" lon="6.099656"><ele>556.8</ele></trkpt>
      <trkpt lat="45.892808" lon="6.099774"><ele>557.6</ele></trkpt>
      <trkpt lat="45.892759" lon="6.099893"><ele>556.5</ele></trkpt>
      <trkpt lat="45.892709" lon="6.100013"><ele>556.8</ele></trkpt>
      <trkpt lat="45.892660" lon="6.100133"><ele>556.7</ele></trkpt>
      <trkpt lat="45.892611" lon="6.100255"><ele>556.5</ele></trkpt>
      <trkpt lat="45.892562" lon="6.100377"><ele>556.4</ele></trkpt>
      <trkpt lat="45.892514" lon="6.100500"><ele>556.9</ele></trkpt>
      <trkpt lat="45.892466" lon="6.100625"><ele>556.0</ele></trkpt>
      <trkpt lat="45.892418" lon="6.100750"><ele>555.4</ele></trkpt>
      <trkpt lat="45.892370" lon="6.100876"><ele>556.4</ele></trkpt>
      <trkpt lat="45.892323" lon="6.101003"><ele>556.7</ele></trkpt>
      <trkpt lat="45.892276" lon="6.101130"><ele>556.1</ele></trkpt>
      <trkpt lat="45.892230" lon="6.101259"><ele>554.5</ele></trkpt>
      <trkpt lat="45.892183" lon="6.101388"><ele>555.1</ele></trkpt>
      <trkpt lat="45.892137" lon="6.101518"><ele>554.6</ele></trkpt>
      <trkpt lat="45.892092" lon="6.101650"><ele>555.5</ele></trkpt>
      <trkpt lat="45.892046" lon="6.101781"><ele>554.7</ele></trkpt>
      <trkpt lat="45.892001" lon="6.101914"><ele>555.0</ele></trkpt>
      <trkpt lat="45.891957" lon="6.102048"><ele>552.8</ele></trkpt>
      <trkpt lat="45.891912" lon="6.102182"><ele>553.0</ele></trkpt>
      <trkpt lat="45.891868" lon="6.102317"><ele>552.5</ele></trkpt>
      <trkpt lat="45.891824" lon="6.102453"><ele>552.4</ele></trkpt>
      <trkpt lat="45.891781" lon="6.102590"><ele>553.1</ele></trkpt>
      <trkpt lat="45.891738" lon="6.102727"><ele>553.3</ele></trkpt>
      <trkpt lat="45.891695" lon="6.102865"><ele>553.5</ele></trkpt>
      <trkpt lat="45.891653" lon="6.103004"><ele>553.3</ele></trkpt>
      <trkpt lat="45.891611" lon="6.103144"><ele>552.1</ele></trkpt>
      <trkpt lat="45.891569" lon="6.103284"><ele>552.2</ele></trkpt>
      <trkpt lat="45.891527" lon="6.103426"><ele>552.0</ele></trkpt>
      <trkpt lat="45.891486" lon="6.103568"><ele>552.1</ele></trkpt>
      <trkpt lat="45.891445" lon="6.103710"><ele>550.5</ele></trkpt>
      <trkpt lat="45.891405" lon="6.103853"><ele>550.6</ele></trkpt>
      <trkpt lat="45.891365" lon="6.103997"><ele>550.1</ele></trkpt>
      <trkpt lat="45.891325" lon="6.104142"><ele>550.1</ele></trkpt>
      <trkpt lat="45.891286" lon="6.104287"><ele>550.9</ele></trkpt>
      <trkpt lat="45.891247" lon="6.104433"><ele>549.6</ele></trkpt>
      <trkpt lat="45.891208" lon="6.104580"><ele>549.7</ele></trkpt>
      <trkpt lat="45.891169" lon="6.104727"><ele>548.6</ele></trkpt>
      <trkpt lat="45.891131" lon="6.104875"><ele>547.5</ele></trkpt>
      <trkpt lat="45.891094" lon="6.105024"><ele>546.2</ele></trkpt>
      <trkpt lat="45.891056" lon="6.105173"><ele>545.0</ele></trkpt>
      <trkpt lat="45.891019" lon="6.105323"><ele>546.1</ele></trkpt>
      <trkpt lat="45.890983" lon="6.105474"><ele>544.1</ele></trkpt>
      <trkpt lat="45.890946" lon="6.105625"><ele>543.6</ele></trkpt>
      <trkpt lat="45.890911" lon="6.105776"><ele>542.6</ele></trkpt>
      <trkpt lat="45.890875" lon="6.105928"><ele>542.5</ele></trkpt>
      <trkpt lat="45.890840" lon="6.106081"><ele>541.6</ele></trkpt>
      <trkpt lat="45.890805" lon="6.106235"><ele>541.6</ele></trkpt>
      <trkpt lat="45.890770" lon="6.106388"><ele>540.2</ele></trkpt>
      <trkpt lat="45.890736" lon="6.106543"><ele>539.6</ele></trkpt>
      <trkpt lat="45.890703" lon="6.106698"><ele>537.9</ele></trkpt>
      <trkpt lat="45.890669" lon="6.106853"><ele>537.2</ele></trkpt>
      <trkpt lat="45.890636" lon="6.107009"><ele>537.6</ele></trkpt>
      <trkpt lat="45.890604" lon="6.107166"><ele>536.2</ele></trkpt>
      <trkpt lat="45.890571" lon="6.107323"><ele>536.4</ele></trkpt>
      <trkpt lat="45.890539" lon="6.107480"><ele>535.7</ele></trkpt>
      <trkpt lat="45.890508" lon="6.107638"><ele>534.7</ele></trkpt>
      <trkpt lat="45.890477" lon="6.107797"><ele>534.7</ele></trkpt>
      <trkpt lat="45.890446" lon="6.107956"><ele>533.9</ele></trkpt>
      <trkpt lat="45.890416" lon="6.108115"><ele>532.5</ele></trkpt>
      <trkpt lat="45.890385" lon="6.108275"><ele>532.9</ele></trkpt>
      <trkpt lat="45.890356" lon="6.108435"><ele>531.4</ele></trkpt>
      <trkpt lat="45.890327" lon="6.108596"><ele>529.8</ele></trkpt>
      <trkpt lat="45.890298" lon="6.108757"><ele>530.2</ele></trkpt>
      <trkpt lat="45.890269" lon="6.108918"><ele>528.7</ele></trkpt>
      <trkpt lat="45.890241" lon="6.109080"><ele>528.8</ele></trkpt>
      <trkpt lat="45.890213" lon="6.109242"><ele>528.9</ele></trkpt>
      <trkpt lat="45.890186" lon="6.109405"><ele>527.3</ele></trkpt>
      <trkpt lat="45.890159" lon="6.109568"><ele>526.2</ele></trkpt>
      <trkpt lat="45.890133" lon="6.109731"><ele>526.1</ele></trkpt>
      <trkpt lat="45.890106" lon="6.109895"><ele>525.4</ele></trkpt>
      <trkpt lat="45.890081" lon="6.110059"><ele>524.2</ele></trkpt>
      <trkpt lat="45.890055" lon="6.110223"><ele>523.7</ele></trkpt>
      <trkpt lat="45.890030" lon="6.110388"><ele>523.3</ele></trkpt>
      <trkpt lat="45.890006" lon="6.110553"><ele>521.4</ele></trkpt>
      <trkpt lat="45.889981" lon="6.110718"><ele>522.5</ele></trkpt>
      <trkpt lat="45.889958" lon="6.110884"><ele>519.8</ele></trkpt>
      <trkpt lat="45.889934" lon="6.111050"><ele>521.1</ele></trkpt>
      <trkpt lat="45.889911" lon="6.111216"><ele>520.4</ele></trkpt>
      <trkpt lat="45.889889" lon="6.111382"><ele>518.5</ele></trkpt>
      <trkpt lat="45.889866" lon="6.111549"><ele>518.6</ele></trkpt>
      <trkpt lat="45.889844" lon="6.111716"><ele>518.4</ele></trkpt>
      <trkpt lat="45.889823" lon="6.111883"><ele>516.7</ele></trkpt>
      <trkpt lat="45.889802" lon="6.112050"><ele>515.7</ele></trkpt>
      <trkpt lat="45.889781" lon="6.112218"><ele>514.1</ele></trkpt>
      <trkpt lat="45.889761" lon="6.112386"><ele>513.5</ele></trkpt>
      <trkpt lat="45.889741" lon="6.112554"><ele>513.7</ele></trkpt>
      <trkpt lat="45.889722" lon="6.112722"><ele>514.0</ele></trkpt>
      <trkpt lat="45.889703" lon="6.112890"><ele>512.8</ele></trkpt>
      <trkpt lat="45.889684" lon="6.113059"><ele>512.8</ele></trkpt>
      <trkpt lat="45.889666" lon="6.113227"><ele>512.2</ele></trkpt>
      <trkpt lat="45.889648" lon="6.113396"><ele>511.5</ele></trkpt>
      <trkpt lat="45.889631" lon="6.113565"><ele>509.9</ele></trkpt>
      <trkpt lat="45.889614" lon="6.113734"><ele>510.1</ele></trkpt>
      <trkpt lat="45.889598" lon="6.113904"><ele>507.6</ele></trkpt>
      <trkpt lat="45.889581" lon="6.114073"><ele>508.7</ele></trkpt>
      <trkpt lat="45.889566" lon="6.114243"><ele>506.0</ele></trkpt>
      <trkpt lat="45.889550" lon="6.114412"><ele>507.0</ele></trkpt>
      <trkpt lat="45.889535" lon="6.114582"><ele>506.3</ele></trkpt>
      <trkpt lat="45.889521" lon="6.114752"><ele>505.0</ele></trkpt>
      <trkpt lat="45.889507" lon="6.114922"><ele>505.0</ele></trkpt>
      <trkpt lat="45.889493" lon="6.115091"><ele>504.0</ele></trkpt>
      <trkpt lat="45.889480" lon="6.115261"><ele>502.0</ele></trkpt>
      <trkpt lat="45.889467" lon="6.115431"><ele>501.7</ele></trkpt>
      <trkpt lat="45.889455" lon="6.115602"><ele>502.1</ele></trkpt>
      <trkpt lat="45.889443" lon="6.115772"><ele>501.0</ele></trkpt>
      <trkpt lat="45.889431" lon="6.115942"><ele>499.6</ele></trkpt>
      <trkpt lat="45.889420" lon="6.116112"><ele>500.3</ele></trkpt>
      <trkpt lat="45.889409" lon="6.116282"><ele>498.8</ele></trkpt>
      <trkpt lat="45.889399" lon="6.116452"><ele>496.9</ele></trkpt>
      <trkpt lat="45.889389" lon="6.116622"><ele>496.3</ele></trkpt>
      <trkpt lat="45.889379" lon="6.116793"><ele>496.8</ele></trkpt>
      <trkpt lat="45.889370" lon="6.116963"><ele>495.6</ele></trkpt>
      <trkpt lat="45.889362" lon="6.117133"><ele>494.2</ele></trkpt>
      <trkpt lat="45.889354" lon="6.117303"><ele>495.0</ele></trkpt>
      <trkpt lat="45.889346" lon="6.117473"><ele>493.1</ele></trkpt>
      <trkpt lat="45.889338" lon="6.117643"><ele>491.9</ele></trkpt>
      <trkpt lat="45.889331" lon="6.117813"><ele>493.0</ele></trkpt>
      <trkpt lat="45.889325" lon="6.117982"><ele>492.0</ele></trkpt>
      <trkpt lat="45.889319" lon="6.118152"><ele>489.8</ele></trkpt>
      <trkpt lat="45.889313" lon="6.118322"><ele>489.7</ele></trkpt>
      <trkpt lat="45.889308" lon="6.118491"><ele>488.9</ele></trkpt>
      <trkpt lat="45.889303" lon="6.118661"><ele>489.7</ele></trkpt>
      <trkpt lat="45.889298" lon="6.118830"><ele>487.4</ele></trkpt>
      <trkpt lat="45.889294" lon="6.118999"><ele>486.8</ele></trkpt>
      <trkpt lat="45.889291" lon="6.119169"><ele>485.6</ele></trkpt>
      <trkpt lat="45.889288" lon="6.119338"><ele>484.9</ele></trkpt>
      <trkpt lat="45.889285" lon="6.119506"><ele>484.3</ele></trkpt>
      <trkpt lat="45.889282" lon="6.119675"><ele>484.9</ele></trkpt>
      <trkpt lat="45.889281" lon="6.119844"><ele>484.4</ele></trkpt>
      <trkpt lat="45.889279" lon="6.120012"><ele>482.8</ele></trkpt>
      <trkpt lat="45.889278" lon="6.120180"><ele>482.7</ele></trkpt>
      <trkpt lat="45.889277" lon="6.120348"><ele>482.6</ele></trkpt>
      <trkpt lat="45.889277" lon="6.120516"><ele>481.0</ele></trkpt>
      <trkpt lat="45.889277" lon="6.120684"><ele>481.0</ele></trkpt>
      <trkpt lat="45.889278" lon="6.120852"><ele>478.7</ele></trkpt>
      <trkpt lat="45.889279" lon="6.121019"><ele>477.8</ele></trkpt>
      <trkpt lat="45.889281" lon="6.121186"><ele>477.1</ele></trkpt>
      <trkpt lat="45.889282" lon="6.121353"><ele>477.1</ele></trkpt>
      <trkpt lat="45.889285" lon="6.121520"><ele>475.7</ele></trkpt>
      <trkpt lat="45.889288" lon="6.121686"><ele>477.2</ele></trkpt>
      <trkpt lat="45.889291" lon="6.121852"><ele>476.4</ele></trkpt>
      <trkpt lat="45.889294" lon="6.122018"><ele>474.0</ele></trkpt>
      <trkpt lat="45.889298" lon="6.122184"><ele>473.4</ele></trkpt>
      <trkpt lat="45.889303" lon="6.122350"><ele>472.9</ele></trkpt>
      <trkpt lat="45.889308" lon="6.122515"><ele>473.3</ele></trkpt>
      <trkpt lat="45.889313" lon="6.122680"><ele>472.9</ele></trkpt>
      <trkpt lat="45.889319" lon="6.122845"><ele>471.5</ele></trkpt>
      <trkpt lat="45.889325" lon="6.123009"><ele>469.5</ele></trkpt>
      <trkpt lat="45.889331" lon="6.123173"><ele>469.6</ele></trkpt>
      <trkpt lat="45.889338" lon="6.123337"><ele>469.8</ele></trkpt>
      <trkpt lat="45.889346" lon="6.123501"><ele>468.5</ele></trkpt>
      <trkpt lat="45.889354" lon="6.123664"><ele>467.0</ele></trkpt>
      <trkpt lat="45.889362" lon="6.123827"><ele>466.3</ele></trkpt>
      <trkpt lat="45.889370" lon="6.123990"><ele>468.4</ele></trkpt>
      <trkpt lat="45.889379" lon="6.124153"><ele>468.4</ele></trkpt>
      <trkpt lat="45.889389" lon="6.124315"><ele>468.8</ele></trkpt>
      <trkpt lat="45.889399" lon="6.124477"><ele>469.1</ele></trkpt>
      <trkpt lat="45.889409" lon="6.124638"><ele>469.5</ele></trkpt>
      <trkpt lat="45.889420" lon="6.124799"><ele>467.9</ele></trkpt>
      <trkpt lat="45.889431" lon="6.124960"><ele>468.6</ele></trkpt>
      <trkpt lat="45.889443" lon="6.125121"><ele>470.0</ele></trkpt>
      <trkpt lat="45.889455" lon="6.125281"><ele>469.4</ele></trkpt>
      <trkpt lat="45.889467" lon="6.125440"><ele>468.8</ele></trkpt>
      <trkpt lat="45.889480" lon="6.125600"><ele>471.1</ele></trkpt>
      <trkpt lat="45.889493" lon="6.125759"><ele>471.3</ele></trkpt>
      <trkpt lat="45.889507" lon="6.125918"><ele>471.2</ele></trkpt>
      <trkpt lat="45.889521" lon="6.126076"><ele>471.2</ele></trkpt>
      <trkpt lat="45.889535" lon="6.126234"><ele>472.2</ele></trkpt>
      <trkpt lat="45.889550" lon="6.126392"><ele>472.3</ele></trkpt>
      <trkpt lat="45.889566" lon="6.126549"><ele>472.9</ele></trkpt>
      <trkpt lat="45.889581" lon="6.126706"><ele>472.9</ele></trkpt>
      <trkpt lat="45.889598" lon="6.126862"><ele>472.1</ele></trkpt>
      <trkpt lat="45.889614" lon="6.127018"><ele>471.9</ele></trkpt>
      <trkpt lat="45.889631" lon="6.127174"><ele>472.5</ele></trkpt>
      <trkpt lat="45.889648" lon="6.127329"><ele>474.1</ele></trkpt>
      <trkpt lat="45.889666" lon="6.127484"><ele>474.9</ele></trkpt>
      <trkpt lat="45.889684" lon="6.127639"><ele>473.9</ele></trkpt>
      <trkpt lat="45.889703" lon="6.127793"><ele>473.6</ele></trkpt>
      <trkpt lat="45.889722" lon="6.127946"><ele>475.8</ele></trkpt>
      <trkpt lat="45.889741" lon="6.128100"><ele>475.1</ele></trkpt>
      <trkpt lat="45.889761" lon="6.128252"><ele>474.6</ele></trkpt>
      <trkpt lat="45.889781" lon="6.128405"><ele>476.0</ele></trkpt>
      <trkpt lat="45.889802" lon="6.128557"><ele>476.0</ele></trkpt>
      <trkpt lat="45.889823" lon="6.128708"><ele>476.8</ele></trkpt>
      <trkpt lat="45.889844" lon="6.128859"><ele>476.1</ele></trkpt>
      <trkpt lat="45.889866" lon="6.129010"><ele>476.7</ele></trkpt>
      <trkpt lat="45.889889" lon="6.129160"><ele>477.1</ele></trkpt>
      <trkpt lat="45.889911" lon="6.129310"><ele>476.7</ele></trkpt>
      <trkpt lat="45.889934" lon="6.129459"><ele>476.6</ele></trkpt>
      <trkpt lat="45.889958" lon="6.129608"><ele>478.8</ele></trkpt>
      <trkpt lat="45.889981" lon="6.129756"><ele>478.9</ele></trkpt>
      <trkpt lat="45.890006" lon="6.129904"><ele>477.6</ele></trkpt>
      <trkpt lat="45.890030" lon="6.130052"><ele>478.5</ele></trkpt>
      <trkpt lat="45.890055" lon="6.130199"><ele>478.1</ele></trkpt>
      <trkpt lat="45.890081" lon="6.130345"><ele>479.3</ele></trkpt>
      <trkpt lat="45.890106" lon="6.130491"><ele>479.0</ele></trkpt>
      <trkpt lat="45.890133" lon="6.130637"><ele>479.1</ele></trkpt>
      <trkpt lat="45.890159" lon="6.130782"><ele>481.2</ele></trkpt>
      <trkpt lat="45.890186" lon="6.130926"><ele>480.1</ele></trkpt>
      <trkpt lat="45.890213" lon="6.131071"><ele>482.2</ele></trkpt>
      <trkpt lat="45.890241" lon="6.131214"><ele>480.6</ele></trkpt>
      <trkpt lat="45.890269" lon="6.131357"><ele>482.3</ele></trkpt>
      <trkpt lat="45.890298" lon="6.131500"><ele>481.7</ele></trkpt>
      <trkpt lat="45.890327" lon="6.131642"><ele>482.3</ele></trkpt>
      <trkpt lat="45.890356" lon="6.131784"><ele>483.4</ele></trkpt>
      <trkpt lat="45.890385" lon="6.131925"><ele>483.1</ele></trkpt>
      <trkpt lat="45.890416" lon="6.132066"><ele>482.7</ele></trkpt>
      <trkpt lat="45.890446" lon="6.132206"><ele>483.1</ele></trkpt>
      <trkpt lat="45.890477" lon="6.132345"><ele>484.5</ele></trkpt>
      <trkpt lat="45.890508" lon="6.132485"><ele>485.1</ele></trkpt>
      <trkpt lat="45.890539" lon="6.132623"><ele>483.4</ele></trkpt>
      <trkpt lat="45.890571" lon="6.132761"><ele>485.9</ele></trkpt>
      <trkpt lat="45.890604" lon="6.132899"><ele>484.0</ele></trkpt>
      <trkpt lat="45.890636" lon="6.133036"><ele>486.4</ele></trkpt>
      <trkpt lat="45.890669" lon="6.133173"><ele>485.8</ele></trkpt>
      <trkpt lat="45.890703" lon="6.133309"><ele>486.4</ele></trkpt>
      <trkpt lat="45.890736" lon="6.133444"><ele>486.8</ele></trkpt>
      <trkpt lat="45.890770" lon="6.133579"><ele>486.4</ele></trkpt>
      <trkpt lat="45.890805" lon="6.133714"><ele>487.1</ele></trkpt>
      <trkpt lat="45.890840" lon="6.133847"><ele>487.9</ele></trkpt>
      <trkpt lat="45.890875" lon="6.133981"><ele>486.6</ele></trkpt>
      <trkpt lat="45.890911" lon="6.134114"><ele>488.0</ele></trkpt>
      <trkpt lat="45.890946" lon="6.134246"><ele>487.2</ele></trkpt>
      <trkpt lat="45.890983" lon="6.134378"><ele>488.8</ele></trkpt>
      <trkpt lat="45.891019" lon="6.134509"><ele>488.8</ele></trkpt>
      <trkpt lat="45.891056" lon="6.134640"><ele>489.4</ele></trkpt>
      <trkpt lat="45.891094" lon="6.134770"><ele>489.0</ele></trkpt>
      <trkpt lat="45.891131" lon="6.134899"><ele>488.9</ele></trkpt>
      <trkpt lat="45.891169" lon="6.135028"><ele>488.7</ele></trkpt>
      <trkpt lat="45.891208" lon="6.135157"><ele>489.9</ele></trkpt>
      <trkpt lat="45.891247" lon="6.135285"><ele>490.9</ele></trkpt>
      <trkpt lat="45.891286" lon="6.135412"><ele>490.4</ele></trkpt>
      <trkpt lat="45.891325" lon="6.135539"><ele>490.1</ele></trkpt>
      <trkpt lat="45.891365" lon="6.135665"><ele>491.3</ele></trkpt>
      <trkpt lat="45.891405" lon="6.135791"><ele>490.7</ele></trkpt>
      <trkpt lat="45.891445" lon="6.135916"><ele>489.7</ele></trkpt>
      <trkpt lat="45.891486" lon="6.136040"><ele>490.3</ele></trkpt>
      <trkpt lat="45.891527" lon="6.136164"><ele>489.7</ele></trkpt>
      <trkpt lat="45.891569" lon="6.136288"><ele>489.0</ele></trkpt>
      <trkpt lat="45.891611" lon="6.136410"><ele>487.7</ele></trkpt>
      <trkpt lat="45.891653" lon="6.136533"><ele>487.1</ele></trkpt>
      <trkpt lat="45.891695" lon="6.136654"><ele>486.0</ele></trkpt>
      <trkpt lat="45.891738" lon="6.136775"><ele>486.3</ele></trkpt>
      <trkpt lat="45.891781" lon="6.136896"><ele>485.4</ele></trkpt>
      <trkpt lat="45.891824" lon="6.137016"><ele>485.9</ele></trkpt>
      <trkpt lat="45.891868" lon="6.137135"><ele>485.0</ele></trkpt>
      <trkpt lat="45.891912" lon="6.137254"><ele>483.7</ele></trkpt>
      <trkpt lat="45.891957" lon="6.137372"><ele>484.9</ele></trkpt>
      <trkpt lat="45.892001" lon="6.137489"><ele>483.5</ele></trkpt>
      <trkpt lat="45.892046" lon="6.137606"><ele>483.0</ele></trkpt>
      <trkpt lat="45.892092" lon="6.137723"><ele>482.3</ele></trkpt>
      <trkpt lat="45.892137" lon="6.137838"><ele>481.9</ele></trkpt>
      <trkpt lat="45.892183" lon="6.137954"><ele>482.1</ele></trkpt>
      <trkpt lat="45.892230" lon="6.138068"><ele>482.3</ele></trkpt>
      <trkpt lat="45.892276" lon="6.138182"><ele>480.0</ele></trkpt>
      <trkpt lat="45.892323" lon="6.138295"><ele>480.8</ele></trkpt>
      <trkpt lat="45.892370" lon="6.138408"><ele>479.0</ele></trkpt>
      <trkpt lat="45.892418" lon="6.138520"><ele>479.5</ele></trkpt>
      <trkpt lat="45.892466" lon="6.138632"><ele>479.2</ele></trkpt>
      <trkpt lat="45.892514" lon="6.138742"><ele>479.1</ele></trkpt>
      <trkpt lat="45.892562" lon="6.138853"><ele>477.6</ele></trkpt>
      <trkpt lat="45.892611" lon="6.138962"><ele>477.0</ele></trkpt>
      <trkpt lat="45.892660" lon="6.139071"><ele>476.1</ele></trkpt>
      <trkpt lat="45.892709" lon="6.139180"><ele>476.3</ele></trkpt>
      <trkpt lat="45.892759" lon="6.139287"><ele>477.0</ele></trkpt>
      <trkpt lat="45.892808" lon="6.139394"><ele>474.7</ele></trkpt>
      <trkpt lat="45.892858" lon="6.139501"><ele>474.3</ele></trkpt>
      <trkpt lat="45.892909" lon="6.139607"><ele>475.3</ele></trkpt>
      <trkpt lat="45.892960" lon="6.139712"><ele>474.5</ele></trkpt>
      <trkpt lat="45.893011" lon="6.139816"><ele>472.7</ele></trkpt>
      <trkpt lat="45.893062" lon="6.139920"><ele>472.5</ele></trkpt>
      <trkpt lat="45.893113" lon="6.140024"><ele>472.4</ele></trkpt>
      <trkpt lat="45.893165" lon="6.140126"><ele>472.4</ele></trkpt>
      <trkpt lat="45.893217" lon="6.140228"><ele>472.8</ele></trkpt>
      <trkpt lat="45.893269" lon="6.140329"><ele>470.0</ele></trkpt>
      <trkpt lat="45.893322" lon="6.140430"><ele>471.8</ele></trkpt>
      <trkpt lat="45.893375" lon="6.140530"><ele>470.1</ele></trkpt>
      <trkpt lat="45.893428" lon="6.140629"><ele>469.4</ele></trkpt>
      <trkpt lat="45.893481" lon="6.140728"><ele>469.0</ele></trkpt>
      <trkpt lat="45.893535" lon="6.140826"><ele>468.3</ele></trkpt>
      <trkpt lat="45.893589" lon="6.140923"><ele>467.8</ele></trkpt>
      <trkpt lat="45.893643" lon="6.141020"><ele>468.7</ele></trkpt>
      <trkpt lat="45.893697" lon="6.141116"><ele>467.2</ele></trkpt>
      <trkpt lat="45.893752" lon="6.141211"><ele>467.0</ele></trkpt>
      <trkpt lat="45.893807" lon="6.141306"><ele>465.2</ele></trkpt>
      <trkpt lat="45.893862" lon="6.141400"><ele>465.9</ele></trkpt>
      <trkpt lat="45.893917" lon="6.141493"><ele>466.1</ele></trkpt>
      <trkpt lat="45.893973" lon="6.141585"><ele>465.9</ele></trkpt>
      <trkpt lat="45.894029" lon="6.141677"><ele>465.0</ele></trkpt>
      <trkpt lat="45.894085" lon="6.141768"><ele>463.9</ele></trkpt>
      <trkpt lat="45.894141" lon="6.141859"><ele>462.6</ele></trkpt>
      <trkpt lat="45.894198" lon="6.141949"><ele>463.0</ele></trkpt>
      <trkpt lat="45.894254" lon="6.142038"><ele>463.3</ele></trkpt>
      <trkpt lat="45.894311" lon="6.142126"><ele>463.1</ele></trkpt>
      <trkpt lat="45.894369" lon="6.142214"><ele>460.7</ele></trkpt>
      <trkpt lat="45.894426" lon="6.142301"><ele>461.5</ele></trkpt>
      <trkpt lat="45.894484" lon="6.142387"><ele>459.8</ele></trkpt>
      <trkpt lat="45.894542" lon="6.142472"><ele>460.0</ele></trkpt>
      <trkpt lat="45.894600" lon="6.142557"><ele>459.3</ele></trkpt>
      <trkpt lat="45.894658" lon="6.142641"><ele>460.2</ele></trkpt>
      <trkpt lat="45.894717" lon="6.142724"><ele>458.7</ele></trkpt>
      <trkpt lat="45.894775" lon="6.142807"><ele>458.6</ele></trkpt>
      <trkpt lat="45.894834" lon="6.142889"><ele>458.5</ele></trkpt>
      <trkpt lat="45.894893" lon="6.142970"><ele>456.5</ele></trkpt>
      <trkpt lat="45.894953" lon="6.143050"><ele>455.9</ele></trkpt>
      <trkpt lat="45.895012" lon="6.143130"><ele>456.5</ele></trkpt>
      <trkpt lat="45.895072" lon="6.143209"><ele>457.1</ele></trkpt>
      <trkpt lat="45.895132" lon="6.143287"><ele>455.0</ele></trkpt>
      <trkpt lat="45.895192" lon="6.143364"><ele>454.5</ele></trkpt>
      <trkpt lat="45.895252" lon="6.143441"><ele>454.2</ele></trkpt>
      <trkpt lat="45.895313" lon="6.143516"><ele>454.6</ele></trkpt>
      <trkpt lat="45.895374" lon="6.143591"><ele>454.0</ele></trkpt>
      <trkpt lat="45.895434" lon="6.143666"><ele>453.6</ele></trkpt>
      <trkpt lat="45.895496" lon="6.143739"><ele>452.5</ele></trkpt>
      <trkpt lat="45.895557" lon="6.143812"><ele>451.3</ele></trkpt>
      <trkpt lat="45.895618" lon="6.143884"><ele>450.8</ele></trkpt>
      <trkpt lat="45.895680" lon="6.143955"><ele>450.4</ele></trkpt>
      <trkpt lat="45.895741" lon="6.144025"><ele>449.9</ele></trkpt>
      <trkpt lat="45.895803" lon="6.144095"><ele>449.9</ele></trkpt>
      <trkpt lat="45.895865" lon="6.144164"><ele>450.0</ele></trkpt>
      <trkpt lat="45.895928" lon="6.144231"><ele>448.3</ele></trkpt>
      <trkpt lat="45.895990" lon="6.144299"><ele>447.7</ele></trkpt>
      <trkpt lat="45.896053" lon="6.144365"><ele>447.3</ele></trkpt>
      <trkpt lat="45.896115" lon="6.144430"><ele>447.1</ele></trkpt>
      <trkpt lat="45.896178" lon="6.144495"><ele>448.4</ele></trkpt>
      <trkpt lat="45.896241" lon="6.144559"><ele>446.2</ele></trkpt>
      <trkpt lat="45.896304" lon="6.144622"><ele>447.4</ele></trkpt>
      <trkpt lat="45.896368" lon="6.144684"><ele>444.8</ele></trkpt>
      <trkpt lat="45.896431" lon="6.144746"><ele>445.2</ele></trkpt>
      <trkpt lat="45.896495" lon="6.144806"><ele>443.9</ele></trkpt>
      <trkpt lat="45.896559" lon="6.144866"><ele>443.7</ele></trkpt>
      <trkpt lat="45.896622" lon="6.144925"><ele>443.5</ele></trkpt>
      <trkpt lat="45.896686" lon="6.144983"><ele>444.2</ele></trkpt>
      <trkpt lat="45.896751" lon="6.145040"><ele>444.4</ele></trkpt>
      <trkpt lat="45.896815" lon="6.145096"><ele>442.9</ele></trkpt>
      <trkpt lat="45.896879" lon="6.145152"><ele>441.4</ele></trkpt>
      <trkpt lat="45.896944" lon="6.145206"><ele>442.2</ele></trkpt>
      <trkpt lat="45.897008" lon="6.145260"><ele>441.4</ele></trkpt>
      <trkpt lat="45.897073" lon="6.145313"><ele>441.5</ele></trkpt>
      <trkpt lat="45.897138" lon="6.145365"><ele>441.6</ele></trkpt>
      <trkpt lat="45.897203" lon="6.145416"><ele>439.5</ele></trkpt>
      <trkpt lat="45.897268" lon="6.145466"><ele>439.3</ele></trkpt>
      <trkpt lat="45.897333" lon="6.145515"><ele>439.5</ele></trkpt>
      <trkpt lat="45.897399" lon="6.145563"><ele>439.3</ele></trkpt>
      <trkpt lat="45.897464" lon="6.145611"><ele>438.7</ele></trkpt>
      <trkpt lat="45.897530" lon="6.145658"><ele>436.6</ele></trkpt>
      <trkpt lat="45.897595" lon="6.145703"><ele>437.4</ele></trkpt>
      <trkpt lat="45.897661" lon="6.145748"><ele>437.2</ele></trkpt>
      <trkpt lat="45.897727" lon="6.145792"><ele>436.9</ele></trkpt>
      <trkpt lat="45.897793" lon="6.145835"><ele>436.3</ele></trkpt>
      <trkpt lat="45.897859" lon="6.145877"><ele>435.8</ele></trkpt>
      <trkpt lat="45.897925" lon="6.145918"><ele>434.4</ele></trkpt>
      <trkpt lat="45.897991" lon="6.145958"><ele>435.3</ele></trkpt>
      <trkpt lat="45.898057" lon="6.145997"><ele>434.1</ele></trkpt>
      <trkpt lat="45.898123" lon="6.146035"><ele>433.6</ele></trkpt>
      <trkpt lat="45.898190" lon="6.146073"><ele>433.8</ele></trkpt>
      <trkpt lat="45.898256" lon="6.146109"><ele>432.4</ele></trkpt>
      <trkpt lat="45.898323" lon="6.146144"><ele>432.7</ele></trkpt>
      <trkpt lat="45.898389" lon="6.146179"><ele>430.4</ele></trkpt>
      <trkpt lat="45.898456" lon="6.146212"><ele>430.7</ele></trkpt>
      <trkpt lat="45.898523" lon="6.146245"><ele>429.4</ele></trkpt>
      <trkpt lat="45.898589" lon="6.146276"><ele>430.0</ele></trkpt>
      <trkpt lat="45.898656" lon="6.146307"><ele>430.6</ele></trkpt>
      <trkpt lat="45.898723" lon="6.146337"><ele>429.5</ele></trkpt>
      <trkpt lat="45.898790" lon="6.146365"><ele>429.5</ele></trkpt>
      <trkpt lat="45.898857" lon="6.146393"><ele>428.5</ele></trkpt>
      <trkpt lat="45.898924" lon="6.146419"><ele>427.1</ele></trkpt>
      <trkpt lat="45.898991" lon="6.146445"><ele>427.2</ele></trkpt>
      <trkpt lat="45.899058" lon="6.146470"><ele>426.2</ele></trkpt>
      <trkpt lat="45.899125" lon="6.146493"><ele>426.9</ele></trkpt>
      <trkpt lat="45.899192" lon="6.146516"><ele>425.9</ele></trkpt>
      <trkpt lat="45.899259" lon="6.146538"><ele>425.4</ele></trkpt>
      <trkpt lat="45.899327" lon="6.146558"><ele>425.1</ele></trkpt>
      <trkpt lat="45.899394" lon="6.146578"><ele>423.7</ele></trkpt>
      <trkpt lat="45.899461" lon="6.146596"><ele>424.6</ele></trkpt>
      <trkpt lat="45.899529" lon="6.146614"><ele>423.0</ele></trkpt>
      <trkpt lat="45.899596" lon="6.146630"><ele>423.3</ele></trkpt>
      <trkpt lat="45.899663" lon="6.146646"><ele>422.3</ele></trkpt>
      <trkpt lat="45.899731" lon="6.146660"><ele>422.2</ele></trkpt>
      <trkpt lat="45.899798" lon="6.146674"><ele>421.6</ele></trkpt>
      <trkpt lat="45.899865" lon="6.146686"><ele>419.8</ele></trkpt>
      <trkpt lat="45.899933" lon="6.146697"><ele>421.7</ele></trkpt>
      <trkpt lat="45.900000" lon="6.146708"><ele>419.4</ele></trkpt>
    </trkseg>
  </trk>
</gpx>
